IRIDIUM 63              
1 25286U 98021B   25061.60215930  .00000698  00000+0  23169-3 0  9999
2 25286  86.3992 126.8571 0002052  96.4018 263.7413 14.36403705408549
IRIDIUM 69              
1 25319U 98026A   25061.59355909  .00001043  00000+0  32001-3 0  9990
2 25319  86.4014 140.4625 0003450  55.0820 305.0704 14.40794397407715
IRIDIUM 71              
1 25320U 98026B   25061.26782828  .00000958  00000+0  29197-3 0  9996
2 25320  86.4002 135.3138 0004303  87.6656 272.5036 14.41005049408191
IRIDIUM 73              
1 25344U 98032C   25061.56052900  .00001179  00000+0  29034-3 0  9999
2 25344  86.4361  92.1178 0002413  75.5400 284.6073 14.51469608415090
IRIDIUM 82              
1 25467U 98051A   25061.75305613  .00024319  00000+0  83778-3 0  9995
2 25467  86.3758 161.7872 0095791 339.7331  20.0121 15.25518105407690
